OBJECT_NAME,OBJECT_ID,EPOCH,MEAN_MOTION,ECCENTRICITY,INCLINATION,RA_OF_ASC_NODE,ARG_OF_PERICENTER,MEAN_ANOMALY,EPHEMERIS_TYPE,CLASSIFICATION_TYPE,NORAD_CAT_ID,ELEMENT_SET_NO,REV_AT_EPOCH,BSTAR,MEAN_MOTION_DOT,MEAN_MOTION_DDOT
2026-134G,2026-134G,2026-06-26T22:21:20.001600,15.09694781,.00146152,97.7054,248.0835,241.7663,118.2091,0,U,69544,999,177,.37021387E-3,.5914E-4,0
2026-134H,2026-134H,2026-06-26T22:20:35.876256,15.09760885,.00144417,97.7038,248.0821,243.1591,116.8162,0,U,69545,999,176,.37225009E-3,.5958E-4,0
STARLINK-37880,2026-135A,2026-06-26T22:00:01.999584,15.80767598,.00015517,97.2828,205.4753,92.6027,355.1771,0,U,69546,999,287,.57965085E-3,.112079E-2,0
STARLINK-37881,2026-135B,2026-06-26T22:00:01.999584,15.80921533,.00013065,97.2828,205.4758,90.0642,0.9384,0,U,69547,999,287,-.10466401E-2,-.197118E-2,0
STARLINK-37265,2026-135C,2026-06-26T22:00:01.999584,15.80767539,.00004937,97.2827,205.4775,105.6888,349.0119,0,U,69548,999,287,.10894386E-2,.213249E-2,0
STARLINK-37871,2026-135D,2026-06-26T22:00:01.999584,15.80808284,.00014262,97.2830,205.4797,76.7778,23.3589,0,U,69549,999,287,.90806807E-4,.1728E-3,0
STARLINK-37865,2026-135E,2026-06-26T22:00:01.999584,15.80815063,.00011742,97.2831,205.4831,86.9978,21.3575,0,U,69550,999,287,.35515517E-4,.6666E-4,0
STARLINK-37862,2026-135F,2026-06-26T22:00:01.999584,15.80812577,.00008872,97.2832,205.4900,93.5873,30.6945,0,U,69551,999,287,.98472564E-4,.18757E-3,0
STARLINK-37861,2026-135G,2026-06-26T22:00:01.999584,15.80814880,.00014837,97.2834,205.4950,90.6676,44.4413,0,U,69552,999,287,.67208652E-4,.1275E-3,0
STARLINK-37859,2026-135H,2026-06-26T22:00:01.999584,15.80816498,.00014305,97.2837,205.4970,91.6081,48.8256,0,U,69553,999,287,.64067665E-4,.12147E-3,0
STARLINK-37860,2026-135J,2026-06-26T22:00:01.999584,15.80792140,.00013758,97.2837,205.4986,81.4489,60.5554,0,U,69554,999,287,.44654326E-3,.86147E-3,0
STARLINK-37858,2026-135K,2026-06-26T22:00:01.999584,15.80824100,.00009492,97.2833,205.5022,92.9121,59.4065,0,U,69555,999,287,-.63083043E-4,-.12212E-3,0
STARLINK-37927,2026-135L,2026-06-26T22:00:01.999584,15.80822590,.00009022,97.2833,205.5029,94.5051,59.1822,0,U,69556,999,287,-.4466253E-5,-.997E-5,0
STARLINK-37929,2026-135M,2026-06-26T22:00:01.999584,15.80788638,.00014474,97.2837,205.5056,87.8084,70.6402,0,U,69557,999,287,.45616594E-3,.88012E-3,0
STARLINK-37954,2026-135N,2026-06-26T22:00:01.999584,15.80828432,.00009487,97.2838,205.5081,77.8918,87.4790,0,U,69558,999,287,-.38072001E-4,-.7432E-4,0
STARLINK-37958,2026-135P,2026-06-26T22:00:01.999584,15.80786927,.00008468,97.2841,205.5149,79.6669,99.7258,0,U,69559,999,287,.50307817E-3,.9717E-3,0
STARLINK-37950,2026-135Q,2026-06-26T22:00:01.999584,15.80789442,.00011838,97.2839,205.5141,82.5615,97.6583,0,U,69560,999,287,.32333064E-3,.62158E-3,0
STARLINK-37952,2026-135R,2026-06-26T22:00:01.999584,15.80798543,.00014529,97.2844,205.5183,89.9554,98.2166,0,U,69561,999,287,.38723531E-3,.7461E-3,0
STARLINK-37935,2026-135S,2026-06-26T22:00:01.999584,15.80797050,.00007085,97.2842,205.5206,72.4070,120.1602,0,U,69562,999,287,.42494441E-3,.8195E-3,0
STARLINK-37936,2026-135T,2026-06-26T22:00:01.999584,15.80802025,.00012749,97.2840,205.5364,81.7927,150.6868,0,U,69563,999,287,.18131727E-3,.34705E-3,0
STARLINK-37932,2026-135U,2026-06-26T22:00:01.999584,15.80790958,.00011943,97.2841,205.5381,93.5488,140.9645,0,U,69564,999,287,.44350228E-3,.85548E-3,0
STARLINK-37916,2026-135V,2026-06-26T22:00:01.999584,15.80837198,.00010181,97.2840,205.5389,83.1618,154.4583,0,U,69565,999,287,.52511568E-3,.10172E-2,0
STARLINK-37909,2026-135W,2026-06-26T22:00:01.999584,15.80787986,.00011645,97.2833,205.5555,86.9205,186.6074,0,U,69566,999,288,.52220742E-3,.10092E-2,0
STARLINK-37934,2026-135X,2026-06-26T22:00:01.999584,15.80805713,.00013397,97.2836,205.5471,69.4842,185.8150,0,U,69567,999,288,.15678309E-3,.29979E-3,0
STARLINK-37938,2026-135Y,2026-06-26T22:00:01.999584,15.80784633,.00008592,97.2837,205.5537,82.9527,186.2464,0,U,69568,999,288,.54793182E-3,.105942E-2,0
STARLINK-37924,2026-135Z,2026-06-26T22:00:01.999584,15.80802733,.00011721,97.2835,205.5591,80.3398,204.5557,0,U,69569,999,288,.16291886E-3,.31157E-3,0
SHIJIAN-31 (SJ-31),2026-136A,2026-06-26T08:07:25.435776,1.92222972,.6941083,63.4771,355.1350,171.7679,212.4551,0,U,69570,999,26,0,.196E-5,0
GUOWANG OBJECT A,2026-137A,2026-06-26T18:51:31.798944,13.89812769,.0012618,50.0001,217.1612,257.1229,102.8260,0,U,69572,999,135,.11075E-3,-.9E-7,0
