2026-134G               
1 69544U 26134G   26177.93148150  .00005914  00000+0  37021-3 0  9992
2 69544  97.7054 248.0835 0014615 241.7663 118.2091 15.09694781  1775
2026-134H               
1 69545U 26134H   26177.93097079  .00005958  00000+0  37225-3 0  9990
2 69545  97.7038 248.0821 0014441 243.1591 116.8162 15.09760885  1767
STARLINK-37880          
1 69546U 26135A   26177.91668981  .00112079  00000+0  57965-3 0  9992
2 69546  97.2828 205.4753 0001551  92.6027 355.1771 15.80767598  2874
STARLINK-37881          
1 69547U 26135B   26177.91668981 -.00197118  00000+0 -10466-2 0  9996
2 69547  97.2828 205.4758 0001306  90.0642   0.9384 15.80921533  2879
STARLINK-37265          
1 69548U 26135C   26177.91668981  .00213249  00000+0  10894-2 0  9994
2 69548  97.2827 205.4775 0000493 105.6888 349.0119 15.80767539  2876
STARLINK-37871          
1 69549U 26135D   26177.91668981  .00017280  00000+0  90807-4 0  9996
2 69549  97.2830 205.4797 0001426  76.7778  23.3589 15.80808284  2874
STARLINK-37865          
1 69550U 26135E   26177.91668981  .00006666  00000+0  35516-4 0  9990
2 69550  97.2831 205.4831 0001174  86.9978  21.3575 15.80815063  2877
STARLINK-37862          
1 69551U 26135F   26177.91668981  .00018757  00000+0  98473-4 0  9996
2 69551  97.2832 205.4900 0000887  93.5873  30.6945 15.80812577  2875
STARLINK-37861          
1 69552U 26135G   26177.91668981  .00012750  00000+0  67209-4 0  9997
2 69552  97.2834 205.4950 0001483  90.6676  44.4413 15.80814880  2877
STARLINK-37859          
1 69553U 26135H   26177.91668981  .00012147  00000+0  64068-4 0  9998
2 69553  97.2837 205.4970 0001430  91.6081  48.8256 15.80816498  2876
STARLINK-37860          
1 69554U 26135J   26177.91668981  .00086147  00000+0  44654-3 0  9998
2 69554  97.2837 205.4986 0001375  81.4489  60.5554 15.80792140  2870
STARLINK-37858          
1 69555U 26135K   26177.91668981 -.00012212  00000+0 -63083-4 0  9991
2 69555  97.2833 205.5022 0000949  92.9121  59.4065 15.80824100  2871
STARLINK-37927          
1 69556U 26135L   26177.91668981 -.00000997  00000+0 -44663-5 0  9993
2 69556  97.2833 205.5029 0000902  94.5051  59.1822 15.80822590  2877
STARLINK-37929          
1 69557U 26135M   26177.91668981  .00088012  00000+0  45617-3 0  9994
2 69557  97.2837 205.5056 0001447  87.8084  70.6402 15.80788638  2874
STARLINK-37954          
1 69558U 26135N   26177.91668981 -.00007432  00000+0 -38072-4 0  9992
2 69558  97.2838 205.5081 0000948  77.8918  87.4790 15.80828432  2877
STARLINK-37958          
1 69559U 26135P   26177.91668981  .00097170  00000+0  50308-3 0  9994
2 69559  97.2841 205.5149 0000846  79.6669  99.7258 15.80786927  2874
STARLINK-37950          
1 69560U 26135Q   26177.91668981  .00062158  00000+0  32333-3 0  9992
2 69560  97.2839 205.5141 0001183  82.5615  97.6583 15.80789442  2877
STARLINK-37952          
1 69561U 26135R   26177.91668981  .00074610  00000+0  38724-3 0  9999
2 69561  97.2844 205.5183 0001452  89.9554  98.2166 15.80798543  2878
STARLINK-37935          
1 69562U 26135S   26177.91668981  .00081950  00000+0  42494-3 0  9994
2 69562  97.2842 205.5206 0000708  72.4070 120.1602 15.80797050  2878
STARLINK-37936          
1 69563U 26135T   26177.91668981  .00034705  00000+0  18132-3 0  9993
2 69563  97.2840 205.5364 0001274  81.7927 150.6868 15.80802025  2876
STARLINK-37932          
1 69564U 26135U   26177.91668981  .00085548  00000+0  44350-3 0  9996
2 69564  97.2841 205.5381 0001194  93.5488 140.9645 15.80790958  2877
STARLINK-37916          
1 69565U 26135V   26177.91668981  .00101720  00000+0  52512-3 0  9997
2 69565  97.2840 205.5389 0001018  83.1618 154.4583 15.80837198  2879
STARLINK-37909          
1 69566U 26135W   26177.91668981  .00100920  00000+0  52221-3 0  9996
2 69566  97.2833 205.5555 0001164  86.9205 186.6074 15.80787986  2884
STARLINK-37934          
1 69567U 26135X   26177.91668981  .00029979  00000+0  15678-3 0  9996
2 69567  97.2836 205.5471 0001339  69.4842 185.8150 15.80805713  2887
STARLINK-37938          
1 69568U 26135Y   26177.91668981  .00105942  00000+0  54793-3 0  9993
2 69568  97.2837 205.5537 0000859  82.9527 186.2464 15.80784633  2888
STARLINK-37924          
1 69569U 26135Z   26177.91668981  .00031157  00000+0  16292-3 0  9992
2 69569  97.2835 205.5591 0001172  80.3398 204.5557 15.80802733  2883
SHIJIAN-31 (SJ-31)      
1 69570U 26136A   26177.33848884  .00000196  00000+0  00000+0 0  9998
2 69570  63.4771 355.1350 6941083 171.7679 212.4551  1.92222972   262
GUOWANG OBJECT A        
1 69572U 26137A   26177.78578471 -.00000009  00000+0  11075-3 0  9994
2 69572  50.0001 217.1612 0012618 257.1229 102.8260 13.89812769  1355
